NORAD_CAT_ID,OBJECT_NAME,OBJECT_TYPE,EPOCH,MEAN_MOTION,ECCENTRICITY,INCLINATION,RA_OF_ASC_NODE,ARG_OF_PERICENTER,MEAN_ANOMALY,BSTAR,MEAN_MOTION_DOT,MEAN_MOTION_DDOT,TLE_LINE0,TLE_LINE1,TLE_LINE2,SEMIMAJOR_AXIS,PERIOD,APOGEE,PERIGEE,DECAYED
54004.0,STARLINK-5129,PAYLOAD,2023-01-13 05:11:11,15.088464800000002,0.0001060999999999,53.2163,342.969,87.5368,272.5745,3.1093e-05,2.07e-06,0.0,0 STARLINK-5129,1 54004U 22125AS  23013.21610062  .00000207  00000-0  31093-4 0  9991,2 54004  53.2163 342.9690 0001061  87.5368 272.5745 15.08846480 15689,6917.861,95.437,540.46,538.992,0.0
54004.0,STARLINK-5129,PAYLOAD,2023-01-13 14:43:29,15.08845053,9.79e-05,53.2157,341.1845,75.1848,284.9253,6.6436e-05,7.699999999999999e-06,0.0,0 STARLINK-5129,1 54004U 22125AS  23013.61353973  .00000770  00000-0  66436-4 0  9994,2 54004  53.2157 341.1845 0000979  75.1848 284.9253 15.08845053 15695,6917.865,95.437,540.4069999999999,539.053,0.0
54004.0,STARLINK-5129,PAYLOAD,2023-01-14 01:51:12,15.08834395,0.0001344,53.2182,339.1069,96.3082,263.8063,2.6284e-05,1.3e-06,0.0,0 STARLINK-5129,1 54004U 22125AS  23014.07723008  .00000130  00000-0  26284-4 0  9992,2 54004  53.2182 339.1069 0001344  96.3082 263.8063 15.08834395 15816,6917.898,95.438,540.692,538.8330000000001,0.0
54004.0,STARLINK-5129,PAYLOAD,2023-01-14 08:12:43,15.08855182,0.0001113,53.2168,337.9154,91.6219,268.4901,0.00013584,1.876e-05,0.0,0 STARLINK-5129,1 54004U 22125AS  23014.34217274  .00001876  00000-0  13584-3 0  9991,2 54004  53.2168 337.9154 0001113  91.6219 268.4901 15.08855182 15858,6917.834,95.437,540.469,538.929,0.0
54004.0,STARLINK-5129,PAYLOAD,2023-01-14 14:34:17,15.08835427,0.0001868,53.2167,336.7256,77.2917,282.8284,-2.0653e-05,-6.17e-06,0.0,0 STARLINK-5129,1 54004U 22125AS  23014.60715275 -.00000617  00000-0 -20653-4 0  9994,2 54004  53.2167 336.7256 0001868  77.2917 282.8284 15.08835427 15897,6917.894,95.438,541.052,538.467,0.0
54004.0,STARLINK-5129,PAYLOAD,2023-01-15 06:28:08,15.08845828,0.0001258,53.2173,333.7508,76.8018,283.3114,0.00010502,1.384e-05,0.0,0 STARLINK-5129,1 54004U 22125AS  23015.26954165  .00001384  00000-0  10502-3 0  9991,2 54004  53.2173 333.7508 0001258  76.8018 283.3114 15.08845828 15996,6917.863,95.437,540.5980000000001,538.857,0.0
54004.0,STARLINK-5129,PAYLOAD,2023-01-16 03:08:07,15.08876558,0.0001164,53.2192,329.886,88.6457,271.4668,0.0002222,3.254e-05,0.0,0 STARLINK-5129,1 54004U 22125AS  23016.13063695  .00003254  00000-0  22220-3 0  9995,2 54004  53.2192 329.8860 0001164  88.6457 271.4668 15.08876558 16120,6917.769,95.435,540.439,538.828,0.0
54004.0,STARLINK-5129,PAYLOAD,2023-01-16 14:15:50,15.0884989,8.9e-05,53.2177,327.8042,72.6133,287.4957,-7.954400000000001e-06,-4.14e-06,0.0,0 STARLINK-5129,1 54004U 22125AS  23016.59433477 -.00000414  00000-0 -79544-5 0  9994,2 54004  53.2177 327.8042 0000890  72.6133 287.4957 15.08849890 16196,6917.85,95.437,540.331,539.099,0.0
54004.0,STARLINK-5129,PAYLOAD,2023-01-16 20:37:25,15.08815435,0.0001385999999999,53.2184,326.6168,57.7561,302.3566,-8.6247e-05,-1.659e-05,0.0,0 STARLINK-5129,1 54004U 22125AS  23016.85932145 -.00001659  00000-0 -86247-4 0  9998,2 54004  53.2184 326.6168 0001386  57.7561 302.3566 15.08815435 16180,6917.955,95.439,540.779,538.862,0.0
54004.0,STARLINK-5129,PAYLOAD,2023-01-17 02:58:57,15.08823492,0.0001859,53.2165,325.427,69.3549,290.7642,-0.00011434,-2.107e-05,0.0,0 STARLINK-5129,1 54004U 22125AS  23017.12428119 -.00002107  00000-0 -11434-3 0  9994,2 54004  53.2165 325.4270 0001859  69.3549 290.7642 15.08823492 16277,6917.931,95.439,541.082,538.51,0.0
54004.0,STARLINK-5129,PAYLOAD,2023-01-17 06:09:44,15.08832152,0.0001521999999999,53.2176,324.8323,72.8074,287.3085,-0.00027193,-4.612e-05,0.0,0 STARLINK-5129,1 54004U 22125AS  23017.25676108 -.00004612  00000-0 -27193-3 0  9993,2 54004  53.2176 324.8323 0001522  72.8074 287.3085 15.08832152 16243,6917.904,95.438,540.822,538.716,0.0
54004.0,STARLINK-5129,PAYLOAD,2023-01-18 02:49:43,15.08847,0.0001339,53.2175,320.9657,73.9837,286.1303,-1.396e-05,-5.1e-06,0.0,0 STARLINK-5129,1 54004U 22125AS  23018.11786516 -.00000510  00000-0 -13960-4 0  9995,2 54004  53.2175 320.9657 0001339  73.9837 286.1303 15.08847000 16422,6917.859,95.437,540.65,538.798,0.0
54004.0,STARLINK-5129,PAYLOAD,2023-01-18 06:00:29,15.08860457,9.93e-05,53.2167,320.3702,80.4639,279.6465,0.0002164,3.16e-05,0.0,0 STARLINK-5129,1 54004U 22125AS  23018.25033833  .00003160  00000-0  21640-3 0  9992,2 54004  53.2167 320.3702 0000993  80.4639 279.6465 15.08860457 16445,6917.818,95.436,540.37,538.996,0.0
54004.0,STARLINK-5129,PAYLOAD,2023-01-19 02:40:30,15.08852846,0.000128,53.2164,316.508,59.8057,300.3061,0.00054373,8.379e-05,0.0,0 STARLINK-5129,1 54004U 22125AS  23019.11146363  .00008379  00000-0  54373-3 0  9997,2 54004  53.2164 316.5080 0001280  59.8057 300.3061 15.08852846 16573,6917.840999999999,95.437,540.592,538.821,0.0
54004.0,STARLINK-5129,PAYLOAD,2023-01-19 05:51:16,15.08864267,0.0001319,53.2174,315.9093,55.6456,304.4661,0.00061367,9.499e-05,0.0,0 STARLINK-5129,1 54004U 22125AS  23019.24393752  .00009499  00000-0  61367-3 0  9992,2 54004  53.2174 315.9093 0001319  55.6456 304.4661 15.08864267 16594,6917.806,95.436,540.5840000000001,538.759,0.0
54004.0,STARLINK-5129,PAYLOAD,2023-01-19 12:12:50,15.08828186,0.0001821999999999,53.2178,314.7221,73.687,286.4322,-0.00024635,-4.205e-05,0.0,0 STARLINK-5129,1 54004U 22125AS  23019.50891326 -.00004205  00000-0 -24635-3 0  9990,2 54004  53.2178 314.7221 0001822  73.6870 286.4322 15.08828186 16589,6917.916,95.438,541.0419999999999,538.521,0.0
54004.0,STARLINK-5129,PAYLOAD,2023-01-19 18:34:22,15.08825136,0.0001351,53.2181,313.5345,72.3098,287.8042,-0.00034399,-5.756e-05,0.0,0 STARLINK-5129,1 54004U 22125AS  23019.77387393 -.00005756  00000-0 -34399-3 0  9993,2 54004  53.2181 313.5345 0001351  72.3098 287.8042 15.08825136 16678,6917.926,95.438,540.725,538.856,0.0
54004.0,STARLINK-5129,PAYLOAD,2023-01-20 02:31:17,15.08840235,0.0001187,53.2169,312.0445,86.4518,273.661,-9.8928e-05,-1.862e-05,0.0,0 STARLINK-5129,1 54004U 22125AS  23020.10506774 -.00001862  00000-0 -98928-4 0  9991,2 54004  53.2169 312.0445 0001187  86.4518 273.6610 15.08840235 16726,6917.88,95.438,540.566,538.924,0.0
54004.0,STARLINK-5129,PAYLOAD,2023-01-20 12:03:36,15.08842514,0.0001065,53.2156,310.2642,103.1848,256.9263,7.9068e-05,9.71e-06,0.0,0 STARLINK-5129,1 54004U 22125AS  23020.50250996  .00000971  00000-0  79068-4 0  9999,2 54004  53.2156 310.2642 0001065 103.1848 256.9263 15.08842514 16730,6917.8730000000005,95.437,540.474,539.001,0.0
54004.0,STARLINK-5129,PAYLOAD,2023-01-21 03:57:28,15.08868714,0.0001065,53.2166,307.2885,91.3825,268.7289,0.0026875,0.00042777,0.0,0 STARLINK-5129,1 54004U 22125AS  23021.16491308  .00042777  00000-0  26875-2 0  9992,2 54004  53.2166 307.2885 0001065  91.3825 268.7289 15.08868714 16884,6917.793000000001,95.436,540.394,538.9209999999999,0.0
54004.0,STARLINK-5129,PAYLOAD,2023-01-21 15:05:10,15.08846021,0.0001789,53.2165,305.2095,30.9209,329.1888,0.00063684,9.863e-05,0.0,0 STARLINK-5129,1 54004U 22125AS  23021.62859612  .00009863  00000-0  63684-3 0  9998,2 54004  53.2165 305.2095 0001789  30.9209 329.1888 15.08846021 16954,6917.861999999999,95.437,540.965,538.489,0.0
54004.0,STARLINK-5129,PAYLOAD,2023-01-22 02:12:51,15.08871563,0.0001284999999999,53.2166,303.1257,94.1267,265.9872,0.0014972,0.00023641,0.0,0 STARLINK-5129,1 54004U 22125AS  23022.09226639  .00023641  00000-0  14972-2 0  9992,2 54004  53.2166 303.1257 0001285  94.1267 265.9872 15.08871563 17027,6917.784000000001,95.436,540.538,538.76,0.0
54004.0,STARLINK-5129,PAYLOAD,2023-01-22 18:06:44,15.08848148,0.0002988,53.2157,300.1519,75.2351,284.8972,0.00091796,0.00014355,0.0,0 STARLINK-5129,1 54004U 22125AS  23022.75467611  .00014355  00000-0  91796-3 0  9994,2 54004  53.2157 300.1519 0002988  75.2351 284.8972 15.08848148 17125,6917.855,95.437,541.788,537.653,0.0
54004.0,STARLINK-5129,PAYLOAD,2023-01-23 00:28:16,15.08834199,0.0001521999999999,53.2157,298.9623,66.2557,293.8595,0.0016942999999999,0.00026775,0.0,0 STARLINK-5129,1 54004U 22125AS  23023.01963781  .00026775  00000-0  16943-2 0  9992,2 54004  53.2157 298.9623 0001522  66.2557 293.8595 15.08834199 17162,6917.898,95.438,540.816,538.71,0.0
54004.0,STARLINK-5129,PAYLOAD,2023-01-23 11:35:58,15.08848338,0.0001766,53.2166,296.8817,57.2514,302.8648,0.0018785,0.00029742,0.0,0 STARLINK-5129,1 54004U 22125AS  23023.48332134  .00029742  00000-0  18785-2 0  9998,2 54004  53.2166 296.8817 0001766  57.2514 302.8648 15.08848338 17235,6917.855,95.437,540.942,538.498,0.0
54004.0,STARLINK-5129,PAYLOAD,2023-01-24 03:29:49,15.08861788,0.0001491,53.215,293.9048,76.7796,283.3362,0.0011878,0.00018678,0.0,0 STARLINK-5129,1 54004U 22125AS  23024.14571674  .00018678  00000-0  11878-2 0  9998,2 54004  53.2150 293.9048 0001491  76.7796 283.3362 15.08861788 17336,6917.814,95.436,540.71,538.6469999999999,0.0
54004.0,STARLINK-5129,PAYLOAD,2023-01-25 03:20:37,15.08843329,7.68e-05,53.2159,289.4455,100.653,259.4549,0.00032497,4.888e-05,0.0,0 STARLINK-5129,1 54004U 22125AS  23025.13931737  .00004888  00000-0  32497-3 0  9997,2 54004  53.2159 289.4455 0000768 100.6530 259.4549 15.08843329 17484,6917.87,95.437,540.2669999999999,539.2040000000001,0.0
54004.0,STARLINK-5129,PAYLOAD,2023-01-25 17:39:06,15.08806129,0.0002283,53.2174,286.7641,91.6474,268.478,0.00058981,9.103e-05,0.0,0 STARLINK-5129,1 54004U 22125AS  23025.73549652  .00009103  00000-0  58981-3 0  9995,2 54004  53.2174 286.7641 0002283  91.6474 268.4780 15.08806129 17572,6917.984,95.44,541.428,538.27,0.0
54004.0,STARLINK-5129,PAYLOAD,2023-01-26 03:11:26,15.08817875,0.0001508,53.2158,284.9841,79.0612,281.055,0.00096748,0.00015134,0.0,0 STARLINK-5129,1 54004U 22125AS  23026.13294426  .00015134  00000-0  96748-3 0  9990,2 54004  53.2158 284.9841 0001508  79.0612 281.0550 15.08817875 17586,6917.948,95.439,540.856,538.77,0.0
